SHIJIAN-6 05A (SJ-6 05A)
1 49961U 21122A   26068.88345882  .00003299  00000+0  27617-3 0  9993
2 49961  97.4012  42.3306 0003221  76.6317 283.5266 14.99085264233873
STARLINK-5459           
1 55669U 23021AT  26068.68533530 -.00000655  00000+0 -47051-4 0  9992
2 55669  70.0008 164.4772 0003433 272.8333  87.2433 14.98337361169277
